0 TITAN 3C TRANSTAGE DEB
1 28817U 65108CE  13275.11490203  .00001106  00000-0  22097-2 0  3987
2 28817 026.3448 202.5447 6353640 186.9684 348.6602 03.41017003142609
0 TITAN 3C TRANSTAGE DEB
1 28817U 65108CE  13280.09876723  .00001215  00000-0  20433-2 0  3999
2 28817 026.3416 199.5882 6354378 191.9325 347.2636 03.41031958142774
0 TITAN 3C TRANSTAGE DEB
1 28817U 65108CE  13281.26189311  .00001559  00000-0  25366-2 0  4003
2 28817 026.3375 198.9214 6354006 193.0576 335.2496 03.41033031142819
0 TITAN 3C TRANSTAGE DEB
1 28817U 65108CE  13287.24265239  .00001541  00000-0  28120-2 0  4014
2 28817 026.3521 195.3891 6353929 198.9624 118.2503 03.41057618143024
